[{"OBJECT_NAME":"STARLINK-30940","OBJECT_ID":"2023-180H","EPOCH":"2026-03-09T20:01:05.080512","MEAN_MOTION":15.27570165,"ECCENTRICITY":0.00022806,"INCLINATION":43.0025,"RA_OF_ASC_NODE":266.649,"ARG_OF_PERICENTER":277.2266,"MEAN_ANOMALY":82.8327,"EPHEMERIS_TYPE":0,"CLASSIFICATION_TYPE":"U","NORAD_CAT_ID":58409,"ELEMENT_SET_NO":999,"REV_AT_EPOCH":12935,"BSTAR":-9.0927856e-5,"MEAN_MOTION_DOT":-2.763e-5,"MEAN_MOTION_DDOT":0},{"OBJECT_NAME":"SL-3 DEB","OBJECT_ID":"1988-032D","EPOCH":"2026-03-09T21:36:49.536576","MEAN_MOTION":15.21301321,"ECCENTRICITY":0.00302448,"INCLINATION":97.5102,"RA_OF_ASC_NODE":52.3226,"ARG_OF_PERICENTER":221.5268,"MEAN_ANOMALY":138.367,"EPHEMERIS_TYPE":0,"CLASSIFICATION_TYPE":"U","NORAD_CAT_ID":25655,"ELEMENT_SET_NO":999,"REV_AT_EPOCH":5124,"BSTAR":0.00031081119,"MEAN_MOTION_DOT":6.967e-5,"MEAN_MOTION_DDOT":0}]
